{
  "norad_id": 50825,
  "name": "STARLINK-3332",
  "history": [
    {
      "epoch": "2026-03-28T16:35:50.928288",
      "apogee_km": 540.6241612843423,
      "perigee_km": 538.9361894935482,
      "latitude_deg": -2.2376999097439616,
      "longitude_deg": 48.88992031989619,
      "semi_major_axis_km": 6917.917175388945,
      "eccentricity": 0.000122,
      "inclination_deg": 53.2167,
      "raan_deg": 83.8177,
      "arg_perigee_deg": 76.2164,
      "mean_anomaly_deg": 283.8964,
      "mean_motion_rev_day": 15.08827965
    },
    {
      "epoch": "2026-03-29T05:18:56.213280",
      "apogee_km": 540.6035334481603,
      "perigee_km": 538.9515354573323,
      "latitude_deg": 44.43472862446502,
      "longitude_deg": 99.7624591998756,
      "semi_major_axis_km": 6917.914534452746,
      "eccentricity": 0.0001194,
      "inclination_deg": 53.217,
      "raan_deg": 81.4386,
      "arg_perigee_deg": 81.7589,
      "mean_anomaly_deg": 278.3538,
      "mean_motion_rev_day": 15.08828829
    }
  ]
}